[{"OBJECT_NAME":"AMAZONIA 1","OBJECT_ID":"2021-015A","EPOCH":"2026-03-09T17:05:01.705920","MEAN_MOTION":14.40836291,"ECCENTRICITY":0.00039353,"INCLINATION":98.4264,"RA_OF_ASC_NODE":142.7385,"ARG_OF_PERICENTER":123.8493,"MEAN_ANOMALY":236.3071,"EPHEMERIS_TYPE":0,"CLASSIFICATION_TYPE":"U","NORAD_CAT_ID":47699,"ELEMENT_SET_NO":999,"REV_AT_EPOCH":26432,"BSTAR":0.00010973552,"MEAN_MOTION_DOT":3.08e-6,"MEAN_MOTION_DDOT":0},{"OBJECT_NAME":"IRIDIUM 24","OBJECT_ID":"1997-082B","EPOCH":"2026-03-09T18:11:48.530976","MEAN_MOTION":14.42441153,"ECCENTRICITY":0.00092866,"INCLINATION":86.3941,"RA_OF_ASC_NODE":327.6494,"ARG_OF_PERICENTER":283.924,"MEAN_ANOMALY":76.0927,"EPHEMERIS_TYPE":0,"CLASSIFICATION_TYPE":"U","NORAD_CAT_ID":25105,"ELEMENT_SET_NO":999,"REV_AT_EPOCH":48149,"BSTAR":0.0001623091,"MEAN_MOTION_DOT":5.57e-6,"MEAN_MOTION_DDOT":0}]
